STARLINK-6285           
1 56405U 23061AH  25238.91613532  .00000392  00000+0  44083-4 0  9998
2 56405  43.0053 162.9880 0001073 269.6951  90.3768 15.02537460127602
STARLINK-6283           
1 56406U 23061AJ  25238.10397004  .00000720  00000+0  68344-4 0  9994
2 56406  43.0029 167.2095 0001148 272.0826  87.9885 15.02536431127489
STARLINK-6282           
1 56407U 23061AK  25238.51393969  .00000082  00000+0  21155-4 0  9996
2 56407  43.0034 165.1302 0000994 274.4366  85.6363 15.02536913127545
STARLINK-6289           
1 56408U 23061AL  25238.49507012  .00000439  00000+0  47552-4 0  9995
2 56408  43.0040 164.9753 0000793 264.1397  95.9355 15.02536228127541
STARLINK-6241           
1 56409U 23061AM  25238.50838914  .00000487  00000+0  51144-4 0  9991
2 56409  43.0027 165.0879 0000941 273.2598  86.8137 15.02538032127549
STARLINK-6281           
1 56410U 23061AN  25238.49396145  .00000240  00000+0  32824-4 0  9997
2 56410  43.0030 164.9770 0000930 261.8652  98.2085 15.02536823127540
STARLINK-6279           
1 56411U 23061AP  25238.50617071 -.00000205  00000+0 -14231-6 0  9991
2 56411  43.0021 165.0705 0001152 268.5156  91.5555 15.02534750127546
STARLINK-6278           
1 56412U 23061AQ  25238.48840949  .00000434  00000+0  47169-4 0  9997
2 56412  43.0032 164.9305 0000901 270.6767  89.3972 15.02535491127547
STARLINK-6258           
1 56413U 23061AR  25238.49728809 -.00000152  00000+0  38243-5 0  9991
2 56413  43.0020 165.0005 0000625 265.8083  94.2688 15.02537104127546
STARLINK-5136           
1 56414U 23061AS  25238.48397041  .00000299  00000+0  37234-4 0  9990
2 56414  43.0032 164.9018 0001136 267.7708  92.3005 15.02536808127547
STARLINK-6268           
1 56415U 23061AT  25238.02183750  .00070414  00000+0  59862-3 0  9997
2 56415  42.9980 154.5429 0002154 264.1913  95.8709 15.68692694127625
STARLINK-6260           
1 56416U 23061AU  25238.13530870  .00000030  00000+0  17256-4 0  9998
2 56416  43.0030 154.4391 0000990 268.4372  91.6357 15.02537889127639
STARLINK-6261           
1 56417U 23061AV  25238.48507832  .00000375  00000+0  42849-4 0  9997
2 56417  43.0033 164.9107 0001196 269.1990  90.8716 15.02539096127549
STARLINK-5356           
1 56418U 23061AW  25238.45437828  .00000280  00000+0  35824-4 0  9992
2 56418  43.0032 152.5309 0000795 260.4886  99.5866 15.02534183127687
STARLINK-5350           
1 56419U 23061AX  25238.48174874  .00000545  00000+0  55407-4 0  9998
2 56419  43.0029 164.8854 0001091 265.8181  94.2537 15.02537684127543
STARLINK-6272           
1 56420U 23061AY  25238.05218147 -.00000026  00000+0  13162-4 0  9992
2 56420  43.0038 154.6745 0001179 266.4752  93.5955 15.02536299127625
STARLINK-6270           
1 56421U 23061AZ  25238.07215805  .00000539  00000+0  54938-4 0  9997
2 56421  43.0029 154.8217 0000996 270.4783  89.5945 15.02539557127621
STARLINK-6236           
1 56422U 23061BA  25238.17848731  .00003382  00000+0  26536-3 0  9990
2 56422  43.0032 153.9024 0001204 274.3855  85.6850 15.02531728127644
STARLINK-6239           
1 56423U 23061BB  25238.44771749  .00000116  00000+0  23652-4 0  9994
2 56423  43.0010 152.4824 0001060 274.2199  85.8522 15.02535429127687
STARLINK-6242           
1 56424U 23061BC  25238.10534592 -.00000647  00000+0 -32839-4 0  9999
2 56424  43.0016 154.2106 0001123 267.8890  92.1823 15.02530325127633
STARLINK-6224           
1 56425U 23061BD  25238.10867206 -.00000320  00000+0 -86535-5 0  9992
2 56425  43.0034 154.2341 0001057 267.7063  92.3658 15.02533929127633
STARLINK-5352           
1 56426U 23061BE  25238.48434456  .00000192  00000+0  29287-4 0  9996
2 56426  43.0037 152.7375 0001134 264.6680  95.4033 15.02534915127686
STARLINK-5724           
1 56427U 23061BF  25238.07548764  .00000016  00000+0  16263-4 0  9995
2 56427  43.0032 154.8340 0001266 269.3836  90.6862 15.02533595127622
STARLINK-6238           
1 56428U 23061BG  25238.09868159  .00000104  00000+0  22728-4 0  9992
2 56428  43.0029 154.1583 0000873 258.2388 101.8356 15.02535056127631
STARLINK-6264           
1 56429U 23061BH  25238.49421318  .00000924  00000+0  83484-4 0  9995
2 56429  43.0049 151.9648 0001289 271.4543  88.6152 15.02538929127697
TROPICS-05              
1 56442U 23062A   25238.87485812  .00094320  00000+0  11593-2 0  9995
2 56442  32.7298  93.3319 0004174 297.7144  62.3117 15.58912127128600
TROPICS-06              
1 56444U 23062C   25238.86338360  .00055169  00000+0  44227-3 0  9990
2 56444  32.7230  63.9695 0001090 228.8310 131.2283 15.69767348128865
STARLINK-5990           
1 56448U 23064A   25238.81291544  .00000441  00000+0  44755-4 0  9993
2 56448  69.9979 275.8815 0003317 269.7236  90.3543 14.98333791126059
STARLINK-5993           
1 56449U 23064B   25238.83362367  .00000443  00000+0  44938-4 0  9993
2 56449  69.9995 275.9551 0003183 268.2158  91.8636 14.98318039126051
STARLINK-5970           
1 56450U 23064C   25238.80873970  .00000083  00000+0  14780-4 0  9991
2 56450  69.9980 275.8669 0003530 268.2361  91.8394 14.98331899126058
STARLINK-5985           
1 56451U 23064D   25238.82945116 -.00001875  00000+0 -14939-3 0  9993
2 56451  69.9984 275.9395 0003129 269.0674  91.0127 14.98336855126053
STARLINK-5986           
1 56452U 23064E   25238.82527422 -.00000287  00000+0 -16260-4 0  9996
2 56452  69.9982 275.9250 0003380 269.1344  90.9428 14.98328708126056
STARLINK-5935           
1 56453U 23064F   25238.82109768  .00000120  00000+0  17854-4 0  9990
2 56453  69.9980 275.9097 0003552 269.4913  90.5839 14.98331331126058
STARLINK-5959           
1 56454U 23064G   25238.53318853  .00000093  00000+0  15631-4 0  9996
2 56454  69.9982 276.5097 0003822 269.2140  90.8582 14.98328847126010
STARLINK-5987           
1 56455U 23064H   25238.52901229  .00000445  00000+0  45091-4 0  9995
2 56455  69.9981 276.4945 0003747 269.0257  91.0473 14.98332191126013
STARLINK-5995           
1 56456U 23064J   25238.80857374 -.00000055  00000+0  32178-5 0  9999
2 56456  69.9979 275.8656 0003874 269.8227  90.2488 14.98331032126053
STARLINK-5994           
1 56457U 23064K   25238.80439982  .00000537  00000+0  52812-4 0  9991
2 56457  69.9977 275.8501 0003854 269.5489  90.5228 14.98332397126056
STARLINK-6050           
1 56458U 23064L   25238.91671296  .00053886  00000+0  44921-2 0  9995
2 56458  69.9990 275.6166 0004346 266.0333 294.6677 14.98301698  5673
STARLINK-6048           
1 56459U 23064M   25238.84628333  .00000007  00000+0  83695-5 0  9993
2 56459  69.9977 275.5953 0003188 269.5596  90.5198 14.98335195126050
STARLINK-6047           
1 56460U 23064N   25238.52485429  .00000656  00000+0  62803-4 0  9994
2 56460  69.9979 276.4801 0003941 262.4945  97.5766 14.98327682126019
STARLINK-6037           
1 56461U 23064P   25238.84194436 -.00000266  00000+0 -14474-4 0  9995
2 56461  69.9978 275.5787 0003580 267.0804  92.9945 14.98327259126069
STARLINK-6045           
1 56462U 23064Q   25238.39518596 -.00000290  00000+0 -16507-4 0  9999
2 56462  69.9989 236.6579 0003636 263.0273  97.0472 14.98336832126986
STARLINK-6051           
1 56463U 23064R   25238.81692181  .00000255  00000+0  29208-4 0  9991
2 56463  69.9978 275.8874 0003442 268.8884  91.1880 14.98332089126050
STARLINK-6043           
1 56464U 23064S   25238.85446406  .00000023  00000+0  97363-5 0  9994
2 56464  69.9979 275.6233 0003556 268.9569  91.1183 14.98330863126061
STARLINK-6054           
1 56465U 23064T   25238.73716636  .00000037  00000+0  10872-4 0  9991
2 56465  69.9985 235.8416 0003711 266.9394  93.1341 14.98329166127037
STARLINK-6053           
1 56466U 23064U   25238.84611716  .00000047  00000+0  11775-4 0  9991
2 56466  69.9978 275.5942 0003579 269.9524  90.1225 14.98330187126060
STARLINK-6055           
1 56467U 23064V   25238.80000579  .00000048  00000+0  11854-4 0  9996
2 56467  69.9978 255.9666 0003542 270.9491  89.1262 14.98329604126545
STARLINK-5998           
1 56468U 23064W   25238.90452852 -.00000068  00000+0  20709-5 0  9996
2 56468  69.9977 275.3952 0003647 269.5627  90.5114 14.98329496126079
STARLINK-5518           
1 56469U 23064X   25238.47872726  .00000701  00000+0  66573-4 0  9996
2 56469  69.9976 256.8518 0003706 265.0466  95.0270 14.98332487126492
STARLINK-5523           
1 56470U 23064Y   25238.47037852  .00000451  00000+0  45636-4 0  9990
2 56470  69.9977 256.8232 0003755 269.1448  90.9280 14.98330512126499
STARLINK-5521           
1 56471U 23064Z   25238.46202817  .00000316  00000+0  34282-4 0  9990
2 56471  69.9975 256.7927 0004229 266.1927  93.8749 14.98330894126499
STARLINK-5038           
1 56472U 23064AA  25238.78748150  .00000511  00000+0  50596-4 0  9994
2 56472  69.9990 255.9218 0003574 268.4672  91.6078 14.98329207126548
STARLINK-5524           
1 56474U 23064AC  25238.47455149  .00000433  00000+0  44065-4 0  9992
2 56474  69.9977 256.8377 0003439 269.3759  90.7006 14.98332205126494
STARLINK-5541           
1 56475U 23064AD  25238.31598733 -.00000014  00000+0  66344-5 0  9994
2 56475  69.9980 257.0829 0003602 268.4921  91.5825 14.98330858126475
STARLINK-5545           
1 56476U 23064AE  25238.79166001 -.00000224  00000+0 -10937-4 0  9996
2 56476  69.9980 255.9355 0003280 266.8620  93.2164 14.98328222126542
STARLINK-5534           
1 56477U 23064AF  25238.76677570  .00000156  00000+0  20896-4 0  9999
2 56477  69.9980 255.8486 0003781 269.2604  90.8122 14.98329572126548
STARLINK-6041           
1 56478U 23064AG  25238.77913470 -.00000130  00000+0 -31160-5 0  9994
2 56478  69.9980 255.8922 0003101 269.7524  90.3279 14.98329423126549
STARLINK-6044           
1 56479U 23064AH  25238.75410837  .00001800  00000+0  15862-3 0  9994
2 56479  69.9975 255.8039 0003443 270.3246  89.7519 14.98323899126541
STARLINK-6214           
1 56480U 23064AJ  25238.75012471  .00004788  00000+0  26801-3 0  9991
2 56480  69.9958 239.0757 0002793 270.9520  89.1327 15.14122386126967
